{
    "links": {
        "self": "http://www.neowsapp.com/rest/v1/neo/3843685?api_key=iIulBulltgU6a56xZRHN4H3l9WmuAYTsLGpBGhQ2"
    },
    "id": "3843685",
    "neo_reference_id": "3843685",
    "name": "(2019 QY5)",
    "designation": "2019 QY5",
    "nasa_jpl_url": "http://ssd.jpl.nasa.gov/sbdb.cgi?sstr=3843685",
    "absolute_magnitude_h": 25.8,
    "estimated_diameter": {
        "kilometers": {
            "estimated_diameter_min": 0.0183888672,
            "estimated_diameter_max": 0.0411187571
        },
        "meters": {
            "estimated_diameter_min": 18.388867207,
            "estimated_diameter_max": 41.1187571041
        },
        "miles": {
            "estimated_diameter_min": 0.0114263088,
            "estimated_diameter_max": 0.0255500032
        },
        "feet": {
            "estimated_diameter_min": 60.3309310875,
            "estimated_diameter_max": 134.9040630575
        }
    },
    "is_potentially_hazardous_asteroid": false,
    "close_approach_data": [
        {
            "close_approach_date": "2019-08-31",
            "close_approach_date_full": "2019-Aug-31 23:50",
            "epoch_date_close_approach": 1567295400000,
            "relative_velocity": {
                "kilometers_per_second": "10.0598000468",
                "kilometers_per_hour": "36215.2801685711",
                "miles_per_hour": "22502.7667247435"
            },
            "miss_distance": {
                "astronomical": "0.0275574624",
                "lunar": "10.7198528736",
                "kilometers": "4122537.677645088",
                "miles": "2561626.1287066944"
            },
            "orbiting_body": "Earth"
        }
    ],
    "orbital_data": {
        "orbit_id": "5",
        "orbit_determination_date": "2019-12-04 07:19:07",
        "first_observation_date": "2019-08-29",
        "last_observation_date": "2019-09-03",
        "data_arc_in_days": 5,
        "observations_used": 62,
        "orbit_uncertainty": "7",
        "minimum_orbit_intersection": ".0275903",
        "jupiter_tisserand_invariant": "3.214",
        "epoch_osculation": "2459000.5",
        "eccentricity": ".5848174777035674",
        "semi_major_axis": "2.454498836303786",
        "inclination": "10.78366219009345",
        "ascending_node_longitude": "335.5510487708746",
        "orbital_period": "1404.567686043875",
        "perihelion_distance": "1.019065017830265",
        "perihelion_argument": "19.3450904913942",
        "aphelion_distance": "3.889932654777308",
        "perihelion_time": "2458741.378611598145",
        "mean_anomaly": "66.41452793735552",
        "mean_motion": ".2563066227260156",
        "equinox": "J2000",
        "orbit_class": {
            "orbit_class_type": "AMO",
            "orbit_class_description": "Near-Earth asteroid orbits similar to that of 1221 Amor",
            "orbit_class_range": "1.017 AU < q (perihelion) < 1.3 AU"
        }
    },
    "is_sentry_object": false
}